{
  "type": "FeatureCollection",
  "name": "star_state_lines",
  "crs": {
    "type": "name",
    "properties": {
      "name": "urn:ogc:def:crs:OGC:1.3:CRS84"
    }
  },
  "features": [
    {
      "type": "Feature",
      "properties": {
        "id": null,
        "州郡": "兖州",
        "星宿": "角宿",
        "四象": "苍龙"
      },
      "geometry": {
        "type": "MultiLineString",
        "coordinates": [
          [
            [
              115.50000004565798,
              35.500000050719876
            ],
            [
              109.3,
              35.5
            ]
          ]
        ]
      }
    },
    {
      "type": "Feature",
      "properties": {
        "id": null,
        "州郡": "豫州",
        "星宿": "房宿",
        "四象": "苍龙"
      },
      "geometry": {
        "type": "MultiLineString",
        "coordinates": [
          [
            [
              114.00000708530244,
              34.00000116520246
            ],
            [
              109.3,
              35.5
            ]
          ]
        ]
      }
    },
    {
      "type": "Feature",
      "properties": {
        "id": null,
        "州郡": "幽州",
        "星宿": "尾宿",
        "四象": "苍龙"
      },
      "geometry": {
        "type": "MultiLineString",
        "coordinates": [
          [
            [
              116.50002361464338,
              39.89994555243323
            ],
            [
              109.3,
              35.5
            ]
          ]
        ]
      }
    },
    {
      "type": "Feature",
      "properties": {
        "id": null,
        "州郡": "江/湖",
        "星宿": "斗宿",
        "四象": "玄武"
      },
      "geometry": {
        "type": "MultiLineString",
        "coordinates": [
          [
            [
              119.99999754866204,
              29.99999999894771
            ],
            [
              109.3,
              35.5
            ]
          ]
        ]
      }
    },
    {
      "type": "Feature",
      "properties": {
        "id": null,
        "州郡": "扬州",
        "星宿": "牛宿",
        "四象": "玄武"
      },
      "geometry": {
        "type": "MultiLineString",
        "coordinates": [
          [
            [
              119.50001546051637,
              32.49996291968117
            ],
            [
              109.3,
              35.5
            ]
          ]
        ]
      }
    },
    {
      "type": "Feature",
      "properties": {
        "id": null,
        "州郡": "青州",
        "星宿": "虚宿",
        "四象": "玄武"
      },
      "geometry": {
        "type": "MultiLineString",
        "coordinates": [
          [
            [
              118.49985490743154,
              36.499975371958506
            ],
            [
              109.3,
              35.5
            ]
          ]
        ]
      }
    },
    {
      "type": "Feature",
      "properties": {
        "id": null,
        "州郡": "并州",
        "星宿": "室宿",
        "四象": "玄武"
      },
      "geometry": {
        "type": "MultiLineString",
        "coordinates": [
          [
            [
              112.49994796063949,
              37.7999931314661
            ],
            [
              109.3,
              35.5
            ]
          ]
        ]
      }
    },
    {
      "type": "Feature",
      "properties": {
        "id": null,
        "州郡": "徐州",
        "星宿": "奎宿",
        "四象": "白虎"
      },
      "geometry": {
        "type": "MultiLineString",
        "coordinates": [
          [
            [
              117.00000005977786,
              34.19999005035282
            ],
            [
              109.3,
              35.5
            ]
          ]
        ]
      }
    },
    {
      "type": "Feature",
      "properties": {
        "id": null,
        "州郡": "冀州",
        "星宿": "昂宿",
        "四象": "白虎"
      },
      "geometry": {
        "type": "MultiLineString",
        "coordinates": [
          [
            [
              114.99995320395772,
              37.999911478975086
            ],
            [
              109.3,
              35.5
            ]
          ]
        ]
      }
    },
    {
      "type": "Feature",
      "properties": {
        "id": null,
        "州郡": "益州",
        "星宿": "觜宿",
        "四象": "白虎"
      },
      "geometry": {
        "type": "MultiLineString",
        "coordinates": [
          [
            [
              104.00010687247172,
              30.60009997054102
            ],
            [
              109.3,
              35.5
            ]
          ]
        ]
      }
    },
    {
      "type": "Feature",
      "properties": {
        "id": null,
        "州郡": "雍州",
        "星宿": "井宿",
        "四象": "朱雀"
      },
      "geometry": {
        "type": "MultiLineString",
        "coordinates": [
          [
            [
              107.99975683180999,
              34.499619984495034
            ],
            [
              109.3,
              35.5
            ]
          ]
        ]
      }
    },
    {
      "type": "Feature",
      "properties": {
        "id": null,
        "州郡": "三河",
        "星宿": "柳宿",
        "四象": "朱雀"
      },
      "geometry": {
        "type": "MultiLineString",
        "coordinates": [
          [
            [
              110.9999385297448,
              34.79993554451148
            ],
            [
              109.3,
              35.5
            ]
          ]
        ]
      }
    },
    {
      "type": "Feature",
      "properties": {
        "id": null,
        "州郡": "荆州",
        "星宿": "翼宿",
        "四象": "朱雀"
      },
      "geometry": {
        "type": "MultiLineString",
        "coordinates": [
          [
            [
              111.9999924299159,
              30.499964311607837
            ],
            [
              109.3,
              35.5
            ]
          ]
        ]
      }
    }
  ]
}