{
  "type": "FeatureCollection",
  "name": "stars",
  "crs": {
    "type": "name",
    "properties": {
      "name": "urn:ogc:def:crs:OGC:1.3:CRS84"
    }
  },
  "features": [
    {
      "type": "Feature",
      "properties": {
        "fid": 1.0,
        "id": null,
        "星宿名": "角宿",
        "距度": 12,
        "累积赤经": 0,
        "四象": "苍龙",
        "分野州郡": "兖州",
        "方位角": 0,
        "半径": 1.0,
        "X坐标": 109.3,
        "Y坐标": 36.5
      },
      "geometry": {
        "type": "Point",
        "coordinates": [
          109.3,
          36.5
        ]
      }
    },
    {
      "type": "Feature",
      "properties": {
        "fid": 2.0,
        "id": null,
        "星宿名": "亢宿",
        "距度": 9,
        "累积赤经": 12,
        "四象": "苍龙",
        "分野州郡": "兖州",
        "方位角": 11.835616438356164,
        "半径": 1.0,
        "X坐标": 109.50510449986862,
        "Y坐标": 36.47874007996692
      },
      "geometry": {
        "type": "Point",
        "coordinates": [
          109.50510449986862,
          36.47874007996692
        ]
      }
    },
    {
      "type": "Feature",
      "properties": {
        "fid": 3.0,
        "id": null,
        "星宿名": "氐宿",
        "距度": 15,
        "累积赤经": 21,
        "四象": "苍龙",
        "分野州郡": "兖州",
        "方位角": 20.71232876712329,
        "半径": 1.0,
        "X坐标": 109.65367612217636,
        "Y坐标": 36.43536794931315
      },
      "geometry": {
        "type": "Point",
        "coordinates": [
          109.65367612217636,
          36.43536794931315
        ]
      }
    },
    {
      "type": "Feature",
      "properties": {
        "fid": 4.0,
        "id": null,
        "星宿名": "房宿",
        "距度": 5,
        "累积赤经": 36,
        "四象": "苍龙",
        "分野州郡": "豫州",
        "方位角": 35.50684931506849,
        "半径": 1.0,
        "X坐标": 109.8808002734538,
        "Y坐标": 36.31404609350822
      },
      "geometry": {
        "type": "Point",
        "coordinates": [
          109.8808002734538,
          36.31404609350822
        ]
      }
    },
    {
      "type": "Feature",
      "properties": {
        "fid": 5.0,
        "id": null,
        "星宿名": "心宿",
        "距度": 5,
        "累积赤经": 41,
        "四象": "苍龙",
        "分野州郡": "豫州",
        "方位角": 40.43835616438356,
        "半径": 1.0,
        "X坐标": 109.94862956103498,
        "Y坐标": 36.26110425866077
      },
      "geometry": {
        "type": "Point",
        "coordinates": [
          109.94862956103498,
          36.26110425866077
        ]
      }
    },
    {
      "type": "Feature",
      "properties": {
        "fid": 6.0,
        "id": null,
        "星宿名": "尾宿",
        "距度": 18,
        "累积赤经": 46,
        "四象": "苍龙",
        "分野州郡": "幽州",
        "方位角": 45.36986301369863,
        "半径": 1.0,
        "X坐标": 110.01165662228178,
        "Y坐标": 36.20252747416916
      },
      "geometry": {
        "type": "Point",
        "coordinates": [
          110.01165662228178,
          36.20252747416916
        ]
      }
    },
    {
      "type": "Feature",
      "properties": {
        "fid": 7.0,
        "id": null,
        "星宿名": "箕宿",
        "距度": 11,
        "累积赤经": 64,
        "四象": "苍龙",
        "分野州郡": "幽州",
        "方位角": 63.12328767123287,
        "半径": 1.0,
        "X坐标": 110.19198134645954,
        "Y坐标": 35.9520722039323
      },
      "geometry": {
        "type": "Point",
        "coordinates": [
          110.19198134645954,
          35.9520722039323
        ]
      }
    },
    {
      "type": "Feature",
      "properties": {
        "fid": 8.0,
        "id": null,
        "星宿名": "斗宿",
        "距度": 26,
        "累积赤经": 75,
        "四象": "玄武",
        "分野州郡": "江/湖",
        "方位角": 73.97260273972603,
        "半径": 1.0,
        "X坐标": 110.26112978387229,
        "Y坐标": 35.77609697309747
      },
      "geometry": {
        "type": "Point",
        "coordinates": [
          110.26112978387229,
          35.77609697309747
        ]
      }
    },
    {
      "type": "Feature",
      "properties": {
        "fid": 9.0,
        "id": null,
        "星宿名": "牛宿",
        "距度": 8,
        "累积赤经": 101,
        "四象": "玄武",
        "分野州郡": "扬州",
        "方位角": 99.61643835616438,
        "半径": 1.0,
        "X坐标": 110.28594814996383,
        "Y坐标": 35.33294837449788
      },
      "geometry": {
        "type": "Point",
        "coordinates": [
          110.28594814996383,
          35.33294837449788
        ]
      }
    },
    {
      "type": "Feature",
      "properties": {
        "fid": 10.0,
        "id": null,
        "星宿名": "女宿",
        "距度": 12,
        "累积赤经": 109,
        "四象": "玄武",
        "分野州郡": "扬州",
        "方位角": 107.5068493150685,
        "半径": 1.0,
        "X坐标": 110.25368099663044,
        "Y坐标": 35.19918019236433
      },
      "geometry": {
        "type": "Point",
        "coordinates": [
          110.25368099663044,
          35.19918019236433
        ]
      }
    },
    {
      "type": "Feature",
      "properties": {
        "fid": 11.0,
        "id": null,
        "星宿名": "虚宿",
        "距度": 10,
        "累积赤经": 121,
        "四象": "玄武",
        "分野州郡": "青州",
        "方位角": 119.34246575342466,
        "半径": 1.0,
        "X坐标": 110.17170631870933,
        "Y坐标": 35.00997133357094
      },
      "geometry": {
        "type": "Point",
        "coordinates": [
          110.17170631870933,
          35.00997133357094
        ]
      }
    },
    {
      "type": "Feature",
      "properties": {
        "fid": 12.0,
        "id": null,
        "星宿名": "危宿",
        "距度": 17,
        "累积赤经": 131,
        "四象": "玄武",
        "分野州郡": "青州",
        "方位角": 129.2054794520548,
        "半径": 1.0,
        "X坐标": 110.07488404136704,
        "Y坐标": 34.86789658881265
      },
      "geometry": {
        "type": "Point",
        "coordinates": [
          110.07488404136704,
          34.86789658881265
        ]
      }
    },
    {
      "type": "Feature",
      "properties": {
        "fid": 13.0,
        "id": null,
        "星宿名": "室宿",
        "距度": 16,
        "累积赤经": 148,
        "四象": "玄武",
        "分野州郡": "并州",
        "方位角": 145.97260273972603,
        "半径": 1.0,
        "X坐标": 109.85958926241017,
        "Y坐标": 34.671229912825495
      },
      "geometry": {
        "type": "Point",
        "coordinates": [
          109.85958926241017,
          34.671229912825495
        ]
      }
    },
    {
      "type": "Feature",
      "properties": {
        "fid": 14.0,
        "id": null,
        "星宿名": "壁宿",
        "距度": 9,
        "累积赤经": 164,
        "四象": "玄武",
        "分野州郡": "并州",
        "方位角": 161.75342465753425,
        "半径": 1.0,
        "X坐标": 109.61310704093583,
        "Y坐标": 34.55028215720857
      },
      "geometry": {
        "type": "Point",
        "coordinates": [
          109.61310704093583,
          34.55028215720857
        ]
      }
    },
    {
      "type": "Feature",
      "properties": {
        "fid": 15.0,
        "id": null,
        "星宿名": "奎宿",
        "距度": 16,
        "累积赤经": 173,
        "四象": "白虎",
        "分野州郡": "徐州",
        "方位角": 170.63013698630138,
        "半径": 1.0,
        "X坐标": 109.46280701293851,
        "Y坐标": 34.51334206710834
      },
      "geometry": {
        "type": "Point",
        "coordinates": [
          109.46280701293851,
          34.51334206710834
        ]
      }
    },
    {
      "type": "Feature",
      "properties": {
        "fid": 16.0,
        "id": null,
        "星宿名": "娄宿",
        "距度": 12,
        "累积赤经": 189,
        "四象": "白虎",
        "分野州郡": "徐州",
        "方位角": 186.41095890410958,
        "半径": 1.0,
        "X坐标": 109.18834099287831,
        "Y坐标": 34.50625341956382
      },
      "geometry": {
        "type": "Point",
        "coordinates": [
          109.18834099287831,
          34.50625341956382
        ]
      }
    },
    {
      "type": "Feature",
      "properties": {
        "fid": 17.0,
        "id": null,
        "星宿名": "胃宿",
        "距度": 14,
        "累积赤经": 201,
        "四象": "白虎",
        "分野州郡": "徐州",
        "方位角": 198.24657534246575,
        "半径": 1.0,
        "X坐标": 108.98689295906416,
        "Y坐标": 34.55028215720857
      },
      "geometry": {
        "type": "Point",
        "coordinates": [
          108.98689295906416,
          34.55028215720857
        ]
      }
    },
    {
      "type": "Feature",
      "properties": {
        "fid": 18.0,
        "id": null,
        "星宿名": "昴宿",
        "距度": 14,
        "累积赤经": 215,
        "四象": "白虎",
        "分野州郡": "冀州",
        "方位角": 212.05479452054794,
        "半径": 1.0,
        "X坐标": 108.76926995183807,
        "Y坐标": 34.65245907710717
      },
      "geometry": {
        "type": "Point",
        "coordinates": [
          108.76926995183807,
          34.65245907710717
        ]
      }
    },
    {
      "type": "Feature",
      "properties": {
        "fid": 19.0,
        "id": null,
        "星宿名": "毕宿",
        "距度": 16,
        "累积赤经": 229,
        "四象": "白虎",
        "分野州郡": "冀州",
        "方位角": 222.9041095890411,
        "半径": 1.0,
        "X坐标": 108.61922659052298,
        "Y坐标": 34.76750592838642
      },
      "geometry": {
        "type": "Point",
        "coordinates": [
          108.61922659052298,
          34.76750592838642
        ]
      }
    },
    {
      "type": "Feature",
      "properties": {
        "fid": 20.0,
        "id": null,
        "星宿名": "觜宿",
        "距度": 5,
        "累积赤经": 245,
        "四象": "白虎",
        "分野州郡": "益州",
        "方位角": 238.68493150684932,
        "半径": 1.0,
        "X坐标": 108.44567783025018,
        "Y坐标": 34.98025618784448
      },
      "geometry": {
        "type": "Point",
        "coordinates": [
          108.44567783025018,
          34.98025618784448
        ]
      }
    },
    {
      "type": "Feature",
      "properties": {
        "fid": 21.0,
        "id": null,
        "星宿名": "参宿",
        "距度": 8,
        "累积赤经": 250,
        "四象": "白虎",
        "分野州郡": "益州",
        "方位角": 240.65753424657535,
        "半径": 1.0,
        "X坐标": 108.42829368129067,
        "Y坐标": 35.00997133357094
      },
      "geometry": {
        "type": "Point",
        "coordinates": [
          108.42829368129067,
          35.00997133357094
        ]
      }
    },
    {
      "type": "Feature",
      "properties": {
        "fid": 22.0,
        "id": null,
        "星宿名": "井宿",
        "距度": 33,
        "累积赤经": 258,
        "四象": "朱雀",
        "分野州郡": "雍州",
        "方位角": 249.53424657534245,
        "半径": 1.0,
        "X坐标": 108.36311865370456,
        "Y坐标": 35.15035254474877
      },
      "geometry": {
        "type": "Point",
        "coordinates": [
          108.36311865370456,
          35.15035254474877
        ]
      }
    },
    {
      "type": "Feature",
      "properties": {
        "fid": 23.0,
        "id": null,
        "星宿名": "鬼宿",
        "距度": 4,
        "累积赤经": 291,
        "四象": "朱雀",
        "分野州郡": "雍州",
        "方位角": 282.0821917808219,
        "半径": 1.0,
        "X坐标": 108.32215165849433,
        "Y坐标": 35.70931464596305
      },
      "geometry": {
        "type": "Point",
        "coordinates": [
          108.32215165849433,
          35.70931464596305
        ]
      }
    },
    {
      "type": "Feature",
      "properties": {
        "fid": 24.0,
        "id": null,
        "星宿名": "柳宿",
        "距度": 15,
        "累积赤经": 295,
        "四象": "朱雀",
        "分野州郡": "三河",
        "方位角": 286.027397260274,
        "半径": 1.0,
        "X坐标": 108.3388702161277,
        "Y坐标": 35.77609697309747
      },
      "geometry": {
        "type": "Point",
        "coordinates": [
          108.3388702161277,
          35.77609697309747
        ]
      }
    },
    {
      "type": "Feature",
      "properties": {
        "fid": 25.0,
        "id": null,
        "星宿名": "星宿",
        "距度": 7,
        "累积赤经": 310,
        "四象": "朱雀",
        "分野州郡": "三河",
        "方位角": 300.82191780821915,
        "半径": 1.0,
        "X坐标": 108.4412360417242,
        "Y坐标": 36.012371412128424
      },
      "geometry": {
        "type": "Point",
        "coordinates": [
          108.4412360417242,
          36.012371412128424
        ]
      }
    },
    {
      "type": "Feature",
      "properties": {
        "fid": 26.0,
        "id": null,
        "星宿名": "张宿",
        "距度": 18,
        "累积赤经": 317,
        "四象": "朱雀",
        "分野州郡": "三河",
        "方位角": 307.7260273972603,
        "半径": 1.0,
        "X坐标": 108.50905434324322,
        "Y坐标": 36.11188640126873
      },
      "geometry": {
        "type": "Point",
        "coordinates": [
          108.50905434324322,
          36.11188640126873
        ]
      }
    },
    {
      "type": "Feature",
      "properties": {
        "fid": 27.0,
        "id": null,
        "星宿名": "翼宿",
        "距度": 19,
        "累积赤经": 335,
        "四象": "朱雀",
        "分野州郡": "荆州",
        "方位角": 325.47945205479454,
        "半径": 1.0,
        "X坐标": 108.73329824370887,
        "Y坐标": 36.32392300575756
      },
      "geometry": {
        "type": "Point",
        "coordinates": [
          108.73329824370887,
          36.32392300575756
        ]
      }
    },
    {
      "type": "Feature",
      "properties": {
        "fid": 28.0,
        "id": null,
        "星宿名": "轸宿",
        "距度": 17,
        "累积赤经": 354,
        "四象": "朱雀",
        "分野州郡": "荆州",
        "方位角": 343.2328767123288,
        "半径": 1.0,
        "X坐标": 109.01151756711938,
        "Y坐标": 36.45748518835504
      },
      "geometry": {
        "type": "Point",
        "coordinates": [
          109.01151756711938,
          36.45748518835504
        ]
      }
    }
  ]
}